
# Worst residual: 33.15 km
# MJD 59200.000000 (2020 Dec 17  0:00)
2010-050B = RV223A9 = Chang'e 2 booster
1 99999U 10050B   20352.49919926  .00000000  00000-0  00000-0 2  8702
2 99999 034.5415 358.1363 9797111 323.1101 197.1858 00.01824931    01

# Worst residual: 31.37 km
# MJD 59201.000000 (2020 Dec 18  0:00)
2010-050B = RV223A9 = Chang'e 2 booster
1 99999U 10050B   20353.49919926  .00000000  00000-0  00000-0 2  8703
2 99999 035.4790 356.9764 9827617 324.1729 203.1040 00.01830558    03

# Worst residual: 29.27 km
# MJD 59202.000000 (2020 Dec 19  0:00)
2010-050B = RV223A9 = Chang'e 2 booster
1 99999U 10050B   20354.49919926  .00000000  00000-0  00000-0 2  8704
2 99999 036.4922 355.8086 9852899 325.2429 209.0042 00.01836015    06

# Worst residual: 27.03 km
# MJD 59203.000000 (2020 Dec 20  0:00)
2010-050B = RV223A9 = Chang'e 2 booster
1 99999U 10050B   20355.49919926  .00000000  00000-0  00000-0 2  8705
2 99999 037.5711 354.6506 9873814 326.2991 214.9249 00.01841350    05

# Worst residual: 24.78 km
# MJD 59204.000000 (2020 Dec 21  0:00)
2010-050B = RV223A9 = Chang'e 2 booster
1 99999U 10050B   20356.49919926  .00000000  00000-0  00000-0 2  8706
2 99999 038.7056 353.5163 9891150 327.3255 220.8958 00.01846562    08

# Worst residual: 22.20 km
# MJD 59205.000000 (2020 Dec 22  0:00)
2010-050B = RV223A9 = Chang'e 2 booster
1 99999U 10050B   20357.49919926  .00000000  00000-0  00000-0 2  8707
2 99999 039.8853 352.4167 9905593 328.3106 226.9398 00.01851614    09

# Worst residual: 20.25 km
# MJD 59206.000000 (2020 Dec 23  0:00)
2010-050B = RV223A9 = Chang'e 2 booster
1 99999U 10050B   20358.49919926  .00000000  00000-0  00000-0 2  8708
2 99999 041.1003 351.3581 9917702 329.2486 233.0732 00.01856424    01

# Worst residual: 18.51 km
# MJD 59207.000000 (2020 Dec 24  0:00)
2010-050B = RV223A9 = Chang'e 2 booster
1 99999U 10050B   20359.49919926  .00000000  00000-0  00000-0 2  8709
2 99999 042.3432 350.3450 9927967 330.1351 239.3097 00.01860877    00

# Worst residual: 16.69 km
# MJD 59208.000000 (2020 Dec 25  0:00)
2010-050B = RV223A9 = Chang'e 2 booster
1 99999U 10050B   20360.49919926  .00000000  00000-0  00000-0 2  8701
2 99999 043.6097 349.3766 9936778 330.9712 245.6594 00.01864815    06

# Worst residual: 14.46 km
# MJD 59209.000000 (2020 Dec 26  0:00)
2010-050B = RV223A9 = Chang'e 2 booster
1 99999U 10050B   20361.49919926  .00000000  00000-0  00000-0 2  8702
2 99999 044.9013 348.4484 9944468 331.7611 252.1295 00.01868040    02

# Worst residual: 13.73 km
# MJD 59210.000000 (2020 Dec 27  0:00)
2010-050B = RV223A9 = Chang'e 2 booster
1 99999U 10050B   20362.49919926  .00000000  00000-0  00000-0 2  8703
2 99999 046.2199 347.5558 9951377 332.5113 258.7231 00.01870310    02

# Worst residual: 12.71 km
# MJD 59211.000000 (2020 Dec 28  0:00)
2010-050B = RV223A9 = Chang'e 2 booster
1 99999U 10050B   20363.49919926  .00000000  00000-0  00000-0 2  8704
2 99999 047.5723 346.6917 9957747 333.2280 265.4414 00.01871339    08

# Worst residual: 12.97 km
# MJD 59212.000000 (2020 Dec 29  0:00)
2010-050B = RV223A9 = Chang'e 2 booster
1 99999U 10050B   20364.49919926  .00000000  00000-0  00000-0 2  8705
2 99999 048.9390 345.8655 9963860 333.9089 272.2801 00.01870801    09

# Worst residual: 15.48 km
# MJD 59213.000000 (2020 Dec 30  0:00)
2010-050B = RV223A9 = Chang'e 2 booster
1 99999U 10050B   20365.49919926  .00000000  00000-0  00000-0 2  8706
2 99999 050.1828 345.1483 9970080 334.5137 279.2303 00.01868317    08

# Worst residual: 146.95 km
# MJD 59214.000000 (2020 Dec 31  0:00)
2010-050B = RV223A9 = Chang'e 2 booster
1 99999U 10050B   20366.49919926  .00000000  00000-0  00000-0 2  8707
2 99999 056.5930 341.9364 9975109 336.5318 286.2840 00.01863087    07
